[{"OBJECT_NAME":"YAOGAN-40 01A","OBJECT_ID":"2023-139A","EPOCH":"2026-03-09T23:20:31.440768","MEAN_MOTION":14.12429316,"ECCENTRICITY":0.00020937,"INCLINATION":85.9907,"RA_OF_ASC_NODE":304.5051,"ARG_OF_PERICENTER":91.437,"MEAN_ANOMALY":268.7053,"EPHEMERIS_TYPE":0,"CLASSIFICATION_TYPE":"U","NORAD_CAT_ID":57830,"ELEMENT_SET_NO":999,"REV_AT_EPOCH":12869,"BSTAR":6.725684e-5,"MEAN_MOTION_DOT":1.43e-6,"MEAN_MOTION_DDOT":0},{"OBJECT_NAME":"FENGYUN 1C DEB","OBJECT_ID":"1999-025ASQ","EPOCH":"2026-03-09T01:50:26.828160","MEAN_MOTION":14.25916196,"ECCENTRICITY":0.00793473,"INCLINATION":98.6088,"RA_OF_ASC_NODE":110.7147,"ARG_OF_PERICENTER":156.6874,"MEAN_ANOMALY":234.1374,"EPHEMERIS_TYPE":0,"CLASSIFICATION_TYPE":"U","NORAD_CAT_ID":30730,"ELEMENT_SET_NO":999,"REV_AT_EPOCH":98236,"BSTAR":0.0010445314,"MEAN_MOTION_DOT":2.53e-5,"MEAN_MOTION_DDOT":0}]
